K14R12E 12.4   0.15 K194R  11.03179   78.54958  338.38495   31.56407  0.6432808  0.01833962  14.2410680  0 E2019-H26   216   6 2013-2019 0.26 M-v 38h MPCLINUX   0400          2014 RE12          20190416
K14R63Q  7.3   0.15 K194R 343.12915  337.52768  117.51627    9.68362  0.1888674  0.00403727  39.0610772  1 E2018-X68   113   8 2010-2018 0.16 M-v 38h MPCLINUX   040E          2014 RQ63          20180130
K14R70H  7.5   0.15 K194R  44.69929  246.43300    7.97666   27.60748  0.1275809  0.00412232  38.5219576  2 MPC xxxxx    18   4 2014-2017 0.12 M-v 38h MPCW       000A          2014 RH70          20171013
K14R70J  7.0   0.15 K194R   4.09754  274.53000   30.79972   26.47993  0.1956141  0.00303300  47.2665870  3 MPC xxxxx    16   3 2014-2017 0.11 M-v 38h MPCW       0010          2014 RJ70          20171013
K14SM3W 13.1   0.15 K194R  94.19977  288.54779   22.56711   10.73499  0.1540885  0.03669330   8.9690172  0 E2018-X68   123   5 2013-2017 0.15 M-v 38h MPCLINUX   040A          2014 SW223         20171207
K14SU3S 13.8   0.15 K194R  35.79381  256.20538  102.72660    3.79688  0.4870549  0.02065169  13.1572666  4 MPO332544    13   1  124 days 0.16 M-v 38h MPCLINUX   200A          2014 SS303         20150122
K14SY8Z  8.0   0.15 K194R  19.76157  224.26395  158.44065   47.67179  0.2528197  0.00291780  48.5026673  3 MPO409507   136   3 2014-2017 0.16 M-v 38h MPCW       000F          2014 SZ348         20170216
K14SY9B  9.3   0.15 K194R 309.22165  359.54031  117.07778   15.53223  0.1758631  0.00752526  25.7902190  2 MPO409507    29   3 2014-2017 0.16 M-v 38h MPCLINUX   000A          2014 SB349         20170103
K14SY9J  7.2   0.15 K194R 355.61283  296.75898  123.76057    8.92684  0.1598132  0.00361452  42.0503044  2 E2018-Y78    72   7 2010-2018 0.20 M-v 38h MPCLINUX   040F          2014 SJ349         20180113
K14SY9K  7.9   0.15 K194R  11.47880  315.35975   59.84623    9.40976  0.2882975  0.00399153  39.3589239  1 E2019-HB4   133   8 2010-2018 0.14 M-v 38h MPCLINUX   040E          2014 SK349         20180112
K14SY9R  6.7   0.15 K194R 357.67385  340.87102   34.79109   17.97910  0.8422016  0.00018758 302.2305089  2 MPO419482    19   3 2014-2016 0.12 M-v 38h MPCLINUX   000A          2014 SR349         20160926
K14SY9S  7.6   0.15 K194R   8.28569  148.03013  144.15673   48.17862  0.6862957  0.00056464 144.9739990  4 MPO389127    12   2 2014-2015 0.17 M-v 38h MPCW       000A          2014 SS349         20151209
K14SY9T  7.2   0.15 K194R 136.36719  129.13822   76.62602   13.72815  0.1822777  0.00305306  47.0593263  4 MPO389127     9   2 2014-2015 0.28 M-v 38h MPCW       0010          2014 ST349         20151016
K14SY9U  7.2   0.15 K194R  26.61537  174.72509   88.75939   23.71333  0.6963018  0.00108266  93.9308488  7 MPO456943     7   2 2014-2015 0.20 M-v 38h MPCW       0011          2014 SU349         20151115
K14SY9V  5.2   0.15 K194R 294.25868   24.71768   56.47468   17.78537  0.4297940  0.00205868  61.1988535  7 MPO419482    13   2 2014-2015 0.17 M-v 38h MPCLINUX   0011          2014 SV349         20150522
K14SY9W  7.5   0.15 K194R  17.24643  251.82494   19.75290   15.22838  0.5988045  0.00101923  97.7887164  4 MPO389127    11   2 2014-2015 0.28 M-v 38h MPCW       000A          2014 SW349         20151016
K14SY9X  7.0   0.15 K194R 110.04291  172.93518   31.40781   12.07433  0.2958742  0.00295076  48.1407950  7 MPO419482    12   2 2014-2015 0.09 M-v 38h MPCLINUX   000F          2014 SX349         20151016
K14SY9Y  7.1   0.15 K194R  31.84123  164.73157   79.63194   15.75189  0.5681559  0.00135214  80.9942720  7 MPO389127     8   2 2014-2015 0.23 M-v 38h MPCW       0011          2014 SY349         20151016
K14SY9Z  7.4   0.15 K194R  39.46892  135.21579  152.79311   35.76561  0.4897638  0.00154852  73.9932415  7 MPO419482    11   2 2014-2015 0.20 M-v 38h MPCLINUX   0011          2014 SZ349         20151115
K14SZ0N  7.6   0.15 K194R 334.78536  266.69040  171.64874   32.04765  0.2083901  0.00349708  42.9865438  6 E2019-HB4    15   2 2014-2015 0.15 M-v 38h MPCLINUX   0010          2014 SN350         20151103
K14SZ0O  7.7   0.15 K194R   3.47232  243.88896  140.92888   24.03951  0.5411592  0.00150624  75.3715093  3 E2019-HB4    29   4 2014-2017 0.17 M-v 38h MPCLINUX   0011          2014 SO350         20171125
K14SZ0Q  7.0   0.15 K194R 105.76839  213.91659   66.28795   29.89191  0.1104281  0.00349602  42.9952361  4 MPO405094    23   3 2014-2016 0.14 M-v 38h MPCW       0010          2014 SQ350         20161205
K14SZ0R  6.4   0.15 K194R  13.10363  220.34983   35.02518   28.77551  0.6442318  0.00093169 103.8216423  2 E2019-HB4    27   2 2014-2016 0.13 M-v 38h MPCLINUX   0011          2014 SR350         20161008
K14Sa3P  6.2   0.15 K194R 344.60170  267.62219  145.38270   31.21044  0.3120948  0.00201051  62.1724778  2 E2019-HB4    32   4 2014-2017 0.09 M-v 38h MPCW       040A          2014 SP363         20171208
K14Sa5A  6.9   0.15 K194R   4.91844  273.88976  158.97080   28.23323  0.0962871  0.00384705  40.3382985  3 E2019-H13    83   5 2013-2017 0.14 M-v 38h MPCW       040E          2014 SA365         20171214
K14T85T  8.1   0.15 K194R  36.81995  264.24696   98.12313   17.86458  0.0757726  0.00383697  40.4089282  4 MPO411566    34   3 2013-2016 0.15 M-v 38h MPCLINUX   000E          2014 TT85          20160107
K14T85W  6.1   0.15 K194R  74.16713  228.80351  106.58995    0.94205  0.0174819  0.00352491  42.7599650  1 E2018-Y78    98   8 2010-2018 0.12 M-v 38h MPCLINUX   0410          2014 TW85          20180203
K14T85X  6.9   0.15 K194R 354.82074  217.32655  201.46104   21.86377  0.1019979  0.00383647  40.4124085  2 E2018-Y78   115   8 2010-2017 0.19 M-v 38h MPCLINUX   040E          2014 TX85          20171029
K14T86B  6.5   0.15 K194R   0.65715  329.75746   50.17021   19.14527  0.1757851  0.00321159  45.4977064  2 E2019-HB4    50   5 2013-2017 0.12 M-v 38h MPCW       0410          2014 TB86          20170918
K14T86E  7.0   0.15 K194R  53.17668  164.36488  161.74903   28.73236  0.1904343  0.00328361  44.8299999  5 MPO389128     8   2 2014-2015 0.14 M-v 38h MPCW       0010          2014 TE86          20151105
K14T86F  6.5   0.15 K194R 145.20125  109.37735   64.91704   32.02741  0.0753666  0.00380957  40.6024081  4 E2019-HB4    25   3 2014-2016 0.13 M-v 38h MPCLINUX   000A          2014 TF86          20161002
K14T95L  7.6   0.15 K194R 350.59448  306.73936  100.80071   10.60391  0.1852653  0.00344551  43.4144273  2 MPC xxxxx    14   3 2014-2017 0.07 M-v 38h MPCW       0010          2014 TL95          20170918
K14UM4F  7.5   0.15 K194R 266.80301  332.34348  174.32151   27.16202  0.1268282  0.00323917  45.2390311  4 MPO369243    99   3 2013-2016 0.19 M-v 38h MPCADO     0010          2014 UF224         20160115
K14UM4O  5.7   0.15 K194R 332.00595  226.39988  253.25210    7.34878  0.1058579  0.00363127  41.9209034  2 MPO456958    62   6 2010-2016 0.14 M-v 38h MPCLINUX   0410          2014 UO224         20160126
K14UM4Q  5.5   0.15 K194R 194.41002  223.88326   16.66225    1.94594  0.0553635  0.00335159  44.2216756  2 E2018-W58   101   8 2010-2018 0.12 M-v 38h MPCLINUX   0410          2014 UQ224         20180110
K14UM4T  6.6   0.15 K194R  10.43292  328.90126   81.78495    3.88876  0.2608154  0.00299869  47.6264258  1 E2018-W58   120   9 2003-2018 0.18 M-v 38h MPCLINUX   040A          2014 UT224         20180110
K14UM4V  6.1   0.15 K194R 338.75522  222.83800  249.84681    3.95855  0.5221496  0.00164679  71.0194152  1 E2018-Y78    75   7 2010-2018 0.16 M-v 38h MPCLINUX   0411          2014 UV224         20180108
K14UM4W  6.8   0.15 K194R  17.12026  188.34219  257.36667    2.95777  0.4006438  0.00240553  55.1647900  1 E2018-X68    75   6 2013-2018 0.16 M-v 38h MPCW       0411          2014 UW224         20180116
K14UM4Y  9.1   0.15 K194R 358.15284  308.38489  145.33059   26.46177  0.8361071  0.00071099 124.3258757  0 E2018-Y78    31   4 2014-2017 0.21 M-v 38h MPCLINUX   0411          2014 UY224         20171212
K14UM4Z  3.4   0.15 K194R 320.07311   30.15070  130.80046   26.78828  0.6455415  0.00088470 107.4662782  5 E2019-HB4    39   4 2014-2017 0.13 M-v 38h MPCLINUX   0411          2014 UZ224         20171223
K14UM5A  6.8   0.15 K194R   4.58328   17.87729  344.55239    3.57130  0.4586358  0.00176804  67.7342595  2 MPO458601    41   4 2014-2017 0.11 M-v 38h MPCLINUX   0411          2014 UA225         20171223
K14UM5C  7.6   0.15 K194R 359.63189  252.58186  139.57073    4.93882  0.1075126  0.00474394  35.0786816  4 E2019-HB4    21   3 2014-2017 0.24 M-v 38h MPCLINUX   000A          2014 UC225         20170923
K14UM5H  7.4   0.15 K194R 188.00473  354.77267  210.87559   29.58873  0.0385844  0.00411554  38.5642241  4 MPO435080    43   3 2013-2015 0.09 M-v 38h MPCW       000A          2014 UH225         20151207
K14UM5J 10.6   0.15 K194R 339.64051   82.36716   18.93280   21.33494  0.3752608  0.00888642  23.0843813  1 E2018-X68    58   4 2012-2017 0.12 M-v 38h MPCLINUX   040A          2014 UJ225         20171118
K14UM5N  5.5   0.15 K194R 326.76619  322.79112   68.52850   53.11637  0.3475429  0.00214808  59.4887857  3 E2019-HB4    30   3 2014-2017 0.08 M-v 38h MPCLINUX   0011          2014 UN225         20170926
K14UM8B  8.0   0.15 K194R   4.33842   28.57061  357.21178    7.43224  0.3266576  0.00230872  56.6962842  2 MPO430555    41   4 2013-2017 0.09 M-v 38h MPCW       0411          2014 UB228         20170830
K14UM8C  7.5   0.15 K194R 255.23332  148.71962  353.63980    5.48884  0.0459894  0.00328494  44.8178492  3 MPO430555    39   5 2013-2017 0.10 M-v 38h MPCW       0410          2014 UC228         20170830
K14UM8D  6.1   0.15 K194R 114.02449    0.72754  245.98270    7.02548  0.3342716  0.00242755  54.8306849  4 MPO430555    34   4 2013-2017 0.08 M-v 38h MPCW       0411          2014 UD228         20170830
K14UM8E  8.4   0.15 K194R 339.23110  210.71305  232.54349    8.82088  0.3985958  0.00225439  57.6036554  2 MPO430555    31   4 2013-2017 0.14 M-v 38h MPCW       0411          2014 UE228         20170830
